[
    {
        "CCSDS_OMM_VERS": "3.0",
        "COMMENT": "GENERATED VIA SPACE-TRACK.ORG API",
        "CREATION_DATE": "2025-05-04T02:26:54",
        "ORIGINATOR": "18 SPCS",
        "OBJECT_NAME": "BEIDOU 3",
        "OBJECT_ID": "2010-001A",
        "CENTER_NAME": "EARTH",
        "REF_FRAME": "TEME",
        "TIME_SYSTEM": "UTC",
        "MEAN_ELEMENT_THEORY": "SGP4",
        "EPOCH": "2025-05-03T20:10:36.601824",
        "MEAN_MOTION": "1.00268430",
        "ECCENTRICITY": "0.00039380",
        "INCLINATION": "3.3410",
        "RA_OF_ASC_NODE": "60.5890",
        "ARG_OF_PERICENTER": "304.7329",
        "MEAN_ANOMALY": "299.7033",
        "EPHEMERIS_TYPE": "0",
        "CLASSIFICATION_TYPE": "U",
        "NORAD_CAT_ID": "36287",
        "ELEMENT_SET_NO": "999",
        "REV_AT_EPOCH": "5606",
        "BSTAR": "0.00000000000000",
        "MEAN_MOTION_DOT": "-0.00000290",
        "MEAN_MOTION_DDOT": "0.0000000000000",
        "SEMIMAJOR_AXIS": "42165.673",
        "PERIOD": "1436.145",
        "APOAPSIS": "35804.142",
        "PERIAPSIS": "35770.933",
        "OBJECT_TYPE": "PAYLOAD",
        "RCS_SIZE": "LARGE",
        "COUNTRY_CODE": "PRC",
        "LAUNCH_DATE": "2010-01-16",
        "SITE": "XSC",
        "DECAY_DATE": null,
        "FILE": "4718307",
        "GP_ID": "286795075",
        "TLE_LINE0": "0 BEIDOU 3",
        "TLE_LINE1": "1 36287U 10001A   25123.84070141 -.00000290  00000-0  00000-0 0  9998",
        "TLE_LINE2": "2 36287   3.3410  60.5890 0003938 304.7329 299.7033  1.00268430 56062"
    }
]